EUTELSAT 21B            
1 38992U 12062B   25337.85808703  .00000147  00000+0  00000+0 0  9991
2 38992   0.0676 346.8433 0003373 279.1801 137.4436  1.00273956 47863
EUTELSAT 70B            
1 39020U 12069A   25337.78863487 -.00000026  00000+0  00000+0 0  9990
2 39020   0.0629   2.7299 0004334 239.4424 185.1062  1.00271658 47558
EUTELSAT 117 WEST A     
1 39122U 13012A   25337.55001633  .00000005  00000+0  00000+0 0  9990
2 39122   0.0219 309.0576 0003130 308.0707 256.7260  1.00274082 46476
EUTELSAT 7B             
1 39163U 13022A   25337.71723233  .00000065  00000+0  00000+0 0  9997
2 39163   0.0678   0.6630 0004219 310.3325  27.0084  1.00269536 45993
EXPRESS-AT1             
1 39612U 14010A   25337.91433662  .00000096  00000+0  00000+0 0  9994
2 39612   0.0170 302.0572 0000256 219.2348 296.8676  1.00270078 42861
EUTELSAT 3B             
1 39773U 14030A   25337.77961347  .00000037  00000+0  00000+0 0  9999
2 39773   0.0635   3.0480 0004780 225.3781 128.1935  1.00270877 42105
EUTELSAT 115 WEST B     
1 40425U 15010B   25337.69305218 -.00000007  00000+0  00000+0 0  9992
2 40425   0.0142 147.7315 0000478 301.2332 118.4232  1.00270514 39435
